start=new Date('2021-12-31T00:00:00.000Z').valueOf();
sats=[{"TLE_LINE1":"1 48586U 21041AK  21364.78074718  .00002343  00000-0  17612-3 0  9999","TIME_SYSTEM":"UTC","DECAY_DATE":null,"PERIOD":"95.592","COUNTRY_CODE":"US","CENTER_NAME":"EARTH","MEAN_MOTION":"15.06407388","ARG_OF_PERICENTER":"90.2576","MEAN_MOTION_DDOT":"0.0000000000000","GP_ID":"192795551","EPOCH":"2021-12-30T18:44:16.556352","NORAD_CAT_ID":"48586","REV_AT_EPOCH":"3446","RCS_SIZE":"LARGE","BSTAR":"0.00017612000000","PERIAPSIS":"545.485","MEAN_MOTION_DOT":"0.00002343","LAUNCH_DATE":"2021-05-15","APOAPSIS":"548.897","MEAN_ANOMALY":"269.8695","FILE":"3255240","ECCENTRICITY":"0.00024630","MEAN_ELEMENT_THEORY":"SGP4","EPHEMERIS_TYPE":"0","INCLINATION":"53.0534","SEMIMAJOR_AXIS":"6925.326","CLASSIFICATION_TYPE":"U","ELEMENT_SET_NO":"999","REF_FRAME":"TEME","RA_OF_ASC_NODE":"169.6463","OBJECT_ID":"2021-041AK","OBJECT_NAME":"STARLINK-2241","SITE":"AFETR","OBJECT_TYPE":"PAYLOAD","TLE_LINE2":"2 48586  53.0534 169.6463 0002463  90.2576 269.8695 15.06407388 34466"},{"EPHEMERIS_TYPE":"0","MEAN_ELEMENT_THEORY":"SGP4","ECCENTRICITY":"0.00022800","CLASSIFICATION_TYPE":"U","SEMIMAJOR_AXIS":"6925.338","INCLINATION":"53.0559","OBJECT_NAME":"STARLINK-2242","OBJECT_ID":"2021-041AL","RA_OF_ASC_NODE":"169.3192","ELEMENT_SET_NO":"999","REF_FRAME":"TEME","OBJECT_TYPE":"PAYLOAD","TLE_LINE2":"2 48587  53.0559 169.3192 0002280  91.6886 268.4364 15.06403549 34470","SITE":"AFETR","MEAN_MOTION":"15.06403549","COUNTRY_CODE":"US","CENTER_NAME":"EARTH","PERIOD":"95.592","DECAY_DATE":null,"TLE_LINE1":"1 48587U 21041AL  21364.85354101  .00001459  00000-0  11683-3 0  9994","TIME_SYSTEM":"UTC","NORAD_CAT_ID":"48587","EPOCH":"2021-12-30T20:29:05.943264","GP_ID":"192796801","MEAN_MOTION_DDOT":"0.0000000000000","ARG_OF_PERICENTER":"91.6886","FILE":"3255240","MEAN_ANOMALY":"268.4364","APOAPSIS":"548.782","LAUNCH_DATE":"2021-05-15","PERIAPSIS":"545.624","MEAN_MOTION_DOT":"0.00001459","BSTAR":"0.00011683000000","RCS_SIZE":"LARGE","REV_AT_EPOCH":"3447"},{"MEAN_ANOMALY":"267.7049","FILE":"3255240","LAUNCH_DATE":"2021-05-15","APOAPSIS":"548.847","BSTAR":"-0.00001643800000","MEAN_MOTION_DOT":"-0.00000527","PERIAPSIS":"545.556","REV_AT_EPOCH":"3460","RCS_SIZE":"LARGE","EPOCH":"2021-12-30T18:19:03.700128","NORAD_CAT_ID":"48588","ARG_OF_PERICENTER":"92.4212","MEAN_MOTION_DDOT":"0.0000000000000","GP_ID":"192796552","CENTER_NAME":"EARTH","COUNTRY_CODE":"US","PERIOD":"95.592","MEAN_MOTION":"15.06404062","DECAY_DATE":null,"TLE_LINE1":"1 48588U 21041AM  21364.76323727 -.00000527  00000-0 -16438-4 0  9996","TIME_SYSTEM":"UTC","SITE":"AFETR","OBJECT_TYPE":"PAYLOAD","TLE_LINE2":"2 48588  53.0532 159.7337 0002376  92.4212 267.7049 15.06404062 34602","OBJECT_NAME":"STARLINK-2244","OBJECT_ID":"2021-041AM","RA_OF_ASC_NODE":"159.7337","REF_FRAME":"TEME","ELEMENT_SET_NO":"999","CLASSIFICATION_TYPE":"U","INCLINATION":"53.0532","SEMIMAJOR_AXIS":"6925.336","EPHEMERIS_TYPE":"0","ECCENTRICITY":"0.00023760","MEAN_ELEMENT_THEORY":"SGP4"},{"EPHEMERIS_TYPE":"0","ECCENTRICITY":"0.00024550","MEAN_ELEMENT_THEORY":"SGP4","CLASSIFICATION_TYPE":"U","INCLINATION":"53.0531","SEMIMAJOR_AXIS":"6925.345","RA_OF_ASC_NODE":"159.4458","ELEMENT_SET_NO":"999","REF_FRAME":"TEME","OBJECT_NAME":"STARLINK-2245","OBJECT_ID":"2021-041AN","SITE":"AFETR","OBJECT_TYPE":"PAYLOAD","TLE_LINE2":"2 48589  53.0531 159.4458 0002455  98.1673 261.9595 15.06401201 34610","DECAY_DATE":null,"TIME_SYSTEM":"UTC","TLE_LINE1":"1 48589U 21041AN  21364.82589329  .00001837  00000-0  14220-3 0  9995","COUNTRY_CODE":"US","CENTER_NAME":"EARTH","PERIOD":"95.592","MEAN_MOTION":"15.06401201","EPOCH":"2021-12-30T19:49:17.180256","NORAD_CAT_ID":"48589","ARG_OF_PERICENTER":"98.1673","MEAN_MOTION_DDOT":"0.0000000000000","GP_ID":"192795301","BSTAR":"0.00014220000000","MEAN_MOTION_DOT":"0.00001837","PERIAPSIS":"545.510","REV_AT_EPOCH":"3461","RCS_SIZE":"LARGE","MEAN_ANOMALY":"261.9595","FILE":"3255240","LAUNCH_DATE":"2021-05-15","APOAPSIS":"548.910"},{"MEAN_MOTION_DOT":"0.00001301","PERIAPSIS":"545.607","BSTAR":"0.00010625000000","RCS_SIZE":"LARGE","REV_AT_EPOCH":"3446","FILE":"3255240","MEAN_ANOMALY":"271.1062","APOAPSIS":"548.808","LAUNCH_DATE":"2021-05-15","DECAY_DATE":null,"TIME_SYSTEM":"UTC","TLE_LINE1":"1 48590U 21041AP  21364.78442999  .00001301  00000-0  10625-3 0  9994","MEAN_MOTION":"15.06402059","PERIOD":"95.592","COUNTRY_CODE":"US","CENTER_NAME":"EARTH","NORAD_CAT_ID":"48590","EPOCH":"2021-12-30T18:49:34.751136","MEAN_MOTION_DDOT":"0.0000000000000","GP_ID":"192796050","ARG_OF_PERICENTER":"89.0192","RA_OF_ASC_NODE":"169.6292","REF_FRAME":"TEME","ELEMENT_SET_NO":"999","OBJECT_NAME":"STARLINK-2246","OBJECT_ID":"2021-041AP","OBJECT_TYPE":"PAYLOAD","TLE_LINE2":"2 48590  53.0548 169.6292 0002311  89.0192 271.1062 15.06402059 34462","SITE":"AFETR","EPHEMERIS_TYPE":"0","MEAN_ELEMENT_THEORY":"SGP4","ECCENTRICITY":"0.00023110","CLASSIFICATION_TYPE":"U","SEMIMAJOR_AXIS":"6925.342","INCLINATION":"53.0548"},{"SEMIMAJOR_AXIS":"6925.350","INCLINATION":"53.0593","CLASSIFICATION_TYPE":"U","MEAN_ELEMENT_THEORY":"SGP4","ECCENTRICITY":"0.00023540","EPHEMERIS_TYPE":"0","OBJECT_TYPE":"PAYLOAD","TLE_LINE2":"2 48591  53.0593 159.4416 0002354  90.8368 269.2891 15.06399512 35514","SITE":"AFETR","OBJECT_ID":"2021-041AQ","OBJECT_NAME":"STARLINK-2248","REF_FRAME":"TEME","ELEMENT_SET_NO":"999","RA_OF_ASC_NODE":"159.4416","MEAN_MOTION_DDOT":"0.0000000000000","GP_ID":"192796302","ARG_OF_PERICENTER":"90.8368","NORAD_CAT_ID":"48591","EPOCH":"2021-12-30T19:26:42.502560","MEAN_MOTION":"15.06399512","COUNTRY_CODE":"US","PERIOD":"95.592","CENTER_NAME":"EARTH","TLE_LINE1":"1 48591U 21041AQ  21364.81021415 -.00000220  00000-0  41477-5 0  9996","TIME_SYSTEM":"UTC","DECAY_DATE":null,"APOAPSIS":"548.845","LAUNCH_DATE":"2021-05-15","FILE":"3255240","MEAN_ANOMALY":"269.2891","RCS_SIZE":"LARGE","REV_AT_EPOCH":"3551","PERIAPSIS":"545.585","MEAN_MOTION_DOT":"-0.00000220","BSTAR":"0.00000414770000"},{"CLASSIFICATION_TYPE":"U","SEMIMAJOR_AXIS":"6925.340","INCLINATION":"53.0555","EPHEMERIS_TYPE":"0","MEAN_ELEMENT_THEORY":"SGP4","ECCENTRICITY":"0.00024130","OBJECT_TYPE":"PAYLOAD","TLE_LINE2":"2 48592  53.0555 169.1937 0002413  92.8990 267.2276 15.06402743 34489","SITE":"AFETR","RA_OF_ASC_NODE":"169.1937","REF_FRAME":"TEME","ELEMENT_SET_NO":"999","OBJECT_NAME":"STARLINK-2249","OBJECT_ID":"2021-041AR","NORAD_CAT_ID":"48592","EPOCH":"2021-12-30T21:12:54.330624","MEAN_MOTION_DDOT":"0.0000000000000","GP_ID":"192797052","ARG_OF_PERICENTER":"92.8990","DECAY_DATE":null,"TIME_SYSTEM":"UTC","TLE_LINE1":"1 48592U 21041AR  21364.88396216  .00001024  00000-0  87665-4 0  9998","MEAN_MOTION":"15.06402743","COUNTRY_CODE":"US","PERIOD":"95.592","CENTER_NAME":"EARTH","MEAN_MOTION_DOT":"0.00001024","PERIAPSIS":"545.534","BSTAR":"0.00008766500000","RCS_SIZE":"LARGE","REV_AT_EPOCH":"3448","FILE":"3255240","MEAN_ANOMALY":"267.2276","APOAPSIS":"548.876","LAUNCH_DATE":"2021-05-15"},{"EPHEMERIS_TYPE":"0","MEAN_ELEMENT_THEORY":"SGP4","ECCENTRICITY":"0.00022690","CLASSIFICATION_TYPE":"U","SEMIMAJOR_AXIS":"6925.325","INCLINATION":"53.0539","RA_OF_ASC_NODE":"169.1504","REF_FRAME":"TEME","ELEMENT_SET_NO":"999","OBJECT_NAME":"STARLINK-2250","OBJECT_ID":"2021-041AS","TLE_LINE2":"2 48593  53.0539 169.1504 0002269  90.7460 269.3789 15.06407743 34487","OBJECT_TYPE":"PAYLOAD","SITE":"AFETR","DECAY_DATE":null,"TIME_SYSTEM":"UTC","TLE_LINE1":"1 48593U 21041AS  21364.89133072  .00002035  00000-0  15546-3 0  9990","MEAN_MOTION":"15.06407743","CENTER_NAME":"EARTH","COUNTRY_CODE":"US","PERIOD":"95.592","NORAD_CAT_ID":"48593","EPOCH":"2021-12-30T21:23:30.974208","GP_ID":"192795801","MEAN_MOTION_DDOT":"0.0000000000000","ARG_OF_PERICENTER":"90.7460","PERIAPSIS":"545.618","MEAN_MOTION_DOT":"0.00002035","BSTAR":"0.00015546000000","RCS_SIZE":"LARGE","REV_AT_EPOCH":"3448","FILE":"3255240","MEAN_ANOMALY":"269.3789","APOAPSIS":"548.761","LAUNCH_DATE":"2021-05-15"},{"SITE":"AFETR","OBJECT_TYPE":"PAYLOAD","TLE_LINE2":"2 48594  53.0528 138.2005 0001964 104.3520 248.7112 15.05587161  3567","REF_FRAME":"TEME","ELEMENT_SET_NO":"999","RA_OF_ASC_NODE":"138.2005","OBJECT_ID":"2021-041AT","OBJECT_NAME":"STARLINK-2251","INCLINATION":"53.0528","SEMIMAJOR_AXIS":"6927.841","CLASSIFICATION_TYPE":"U","ECCENTRICITY":"0.00019640","MEAN_ELEMENT_THEORY":"SGP4","EPHEMERIS_TYPE":"0","REV_AT_EPOCH":"356","RCS_SIZE":"LARGE","BSTAR":"-0.00212840000000","PERIAPSIS":"548.345","MEAN_MOTION_DOT":"-0.00031160","LAUNCH_DATE":"2021-05-15","APOAPSIS":"551.067","MEAN_ANOMALY":"248.7112","FILE":"3255240","ARG_OF_PERICENTER":"104.3520","MEAN_MOTION_DDOT":"0.0000000000000","GP_ID":"192795552","EPOCH":"2021-12-31T00:00:00.999648","NORAD_CAT_ID":"48594","TLE_LINE1":"1 48594U 21041AT  21365.00001157 -.00031160  00000-0 -21284-2 0  9991","TIME_SYSTEM":"UTC","DECAY_DATE":null,"COUNTRY_CODE":"US","PERIOD":"95.644","CENTER_NAME":"EARTH","MEAN_MOTION":"15.05587161"},{"APOAPSIS":"548.741","LAUNCH_DATE":"2021-05-15","FILE":"3255240","MEAN_ANOMALY":"266.8020","RCS_SIZE":"LARGE","REV_AT_EPOCH":"3575","MEAN_MOTION_DOT":"0.00001204","PERIAPSIS":"545.677","BSTAR":"0.00009969600000","MEAN_MOTION":"15.06401561","COUNTRY_CODE":"US","PERIOD":"95.592","CENTER_NAME":"EARTH","TIME_SYSTEM":"UTC","TLE_LINE1":"1 48595U 21041AU  21364.87291744  .00001204  00000-0  99696-4 0  9997","DECAY_DATE":null,"MEAN_MOTION_DDOT":"0.0000000000000","GP_ID":"192796802","ARG_OF_PERICENTER":"93.3222","NORAD_CAT_ID":"48595","EPOCH":"2021-12-30T20:57:00.066816","OBJECT_ID":"2021-041AU","OBJECT_NAME":"STARLINK-2252","REF_FRAME":"TEME","ELEMENT_SET_NO":"999","RA_OF_ASC_NODE":"169.2364","TLE_LINE2":"2 48595  53.0552 169.2364 0002212  93.3222 266.8020 15.06401561 35755","OBJECT_TYPE":"PAYLOAD","SITE":"AFETR","MEAN_ELEMENT_THEORY":"SGP4","ECCENTRICITY":"0.00022120","EPHEMERIS_TYPE":"0","SEMIMAJOR_AXIS":"6925.344","INCLINATION":"53.0552","CLASSIFICATION_TYPE":"U"}];
